OBJECT_NAME,OBJECT_ID,EPOCH,MEAN_MOTION,ECCENTRICITY,INCLINATION,RA_OF_ASC_NODE,ARG_OF_PERICENTER,MEAN_ANOMALY,EPHEMERIS_TYPE,CLASSIFICATION_TYPE,NORAD_CAT_ID,ELEMENT_SET_NO,REV_AT_EPOCH,BSTAR,MEAN_MOTION_DOT,MEAN_MOTION_DDOT
SAUDISAT 1C (SO-50),2002-058C,2026-06-10T09:53:19.735872,14.83031935,.00753998,64.5505,149.9474,263.7335,95.5179,0,U,27607,999,26345,.12205633E-3,.888E-5,0
SAUDISAT 2,2004-025F,2026-06-10T12:05:00.583008,14.56679989,.00238731,98.5506,161.3127,319.6344,40.3081,0,U,28371,999,16477,.64243332E-4,.238E-5,0
SAUDISAT 3,2007-012B,2026-06-10T14:16:01.870176,14.71421795,.00133525,98.1453,111.9908,246.6027,113.3776,0,U,31118,999,2677,.4376834E-4,.22E-5,0
PISAT,2016-059B,2026-06-10T12:52:57.185472,14.68972214,.00278992,97.8178,162.2754,224.6784,135.2174,0,U,41784,999,51876,.14590202E-3,.812E-5,0
FLYING LAPTOP,2017-042G,2026-06-10T14:04:18.188832,15.01103306,.00192663,97.4659,317.3750,143.2925,216.9624,0,U,42831,999,48546,.27764316E-3,.351E-4,0
SALSAT,2020-068K,2026-06-10T12:56:05.145216,15.29703223,.00086211,97.8853,164.1992,335.4923,24.5905,0,U,46495,999,31434,.24329255E-3,.6924E-4,0
